ANDESITE                
1 45726U 20037D   26068.46720933  .00004478  00000+0  31876-3 0  9992
2 45726  97.7890 260.5174 0009953 141.6473 218.5462 15.05115692310662
STARLINK-5670           
1 55341U 23013L   26068.07000350 -.00001040  00000+0 -61967-4 0  9993
2 55341  43.0030 303.9234 0001054 272.6238  87.4484 15.02534119171616
